{"type": "FeatureCollection", "features": [ {"type": "Feature", "properties": {"norad_id": 41774, "name": "SKYSAT-C3", "group": "resource", "lat": 18.53629088584848, "lon": 19.73133397878999, "alt_km": 433.3193359381412, "timestamp": "2025-12-14T09:36:22.691948+00:00", "meta": {"OBJECT_NAME": "SKYSAT-C3", "OBJECT_ID": "2016-058E", "EPOCH": "2025-12-13T14:51:57.464640", "MEAN_MOTION": 15.44436683, "ECCENTRICITY": 0.00017198, "INCLINATION": 96.9308, "RA_OF_ASC_NODE": 21.3242, "ARG_OF_PERICENTER": 108.8076, "MEAN_ANOMALY": 251.336, "EPHEMERIS_TYPE": 0, "CLASSIFICATION_TYPE": "U", "NORAD_CAT_ID": 41774, "ELEMENT_SET_NO": 999, "REV_AT_EPOCH": 51739, "BSTAR": 0.00042345172, "MEAN_MOTION_DOT": 0.00019528, "MEAN_MOTION_DDOT": 0}, "tle": {"line1": "1 41774U 16058E   25347.61941510  .00019528  00000+0  42345-3 0  9996", "line2": "2 41774  96.9308  21.3242 0001719 108.8076 251.3360 15.44436683517391"}}, "geometry": {"type": "Point", "coordinates": [19.73133397878999, 18.53629088584848]}}, {"type": "Feature", "properties": {"norad_id": 41785, "name": "ALSAT 1B", "group": "resource", "lat": 14.123395359677268, "lon": -177.9096403336744, "alt_km": 652.5505926698752, "timestamp": "2025-12-14T09:36:22.691958+00:00", "meta": {"OBJECT_NAME": "ALSAT 1B", "OBJECT_ID": "2016-059C", "EPOCH": "2025-12-13T14:54:45.592992", "MEAN_MOTION": 14.72078005, "ECCENTRICITY": 0.00107243, "INCLINATION": 97.7819, "RA_OF_ASC_NODE": 359.3731, "ARG_OF_PERICENTER": 100.59, "MEAN_ANOMALY": 259.6517, "EPHEMERIS_TYPE": 0, "CLASSIFICATION_TYPE": "U", "NORAD_CAT_ID": 41785, "ELEMENT_SET_NO": 999, "REV_AT_EPOCH": 49327, "BSTAR": 0.00017150394, "MEAN_MOTION_DOT": 1.032e-05, "MEAN_MOTION_DDOT": 0}, "tle": {"line1": "1 41785U 16059C   25347.62136103  .00001032  00000+0  17150-3 0  9991", "line2": "2 41785  97.7819 359.3731 0010724 100.5900 259.6517 14.72078005493272"}}, "geometry": {"type": "Point", "coordinates": [-177.9096403336744, 14.123395359677268]}}, {"type": "Feature", "properties": {"norad_id": 41787, "name": "PATHFINDER 1", "group": "resource", "lat": -35.66236144947455, "lon": 165.44180779517032, "alt_km": 692.0853463189678, "timestamp": "2025-12-14T09:36:22.691968+00:00", "meta": {"OBJECT_NAME": "PATHFINDER 1", "OBJECT_ID": "2016-059E", "EPOCH": "2025-12-13T14:37:29.529984", "MEAN_MOTION": 14.67323041, "ECCENTRICITY": 0.00300199, "INCLINATION": 97.8139, "RA_OF_ASC_NODE": 350.3426, "ARG_OF_PERICENTER": 78.5855, "MEAN_ANOMALY": 281.872, "EPHEMERIS_TYPE": 0, "CLASSIFICATION_TYPE": "U", "NORAD_CAT_ID": 41787, "ELEMENT_SET_NO": 999, "REV_AT_EPOCH": 49249, "BSTAR": 0.00021829656, "MEAN_MOTION_DOT": 1.194e-05, "MEAN_MOTION_DDOT": 0}, "tle": {"line1": "1 41787U 16059E   25347.60936956  .00001194  00000+0  21830-3 0  9994", "line2": "2 41787  97.8139 350.3426 0030019  78.5855 281.8720 14.67323041492497"}}, "geometry": {"type": "Point", "coordinates": [165.44180779517032, -35.66236144947455]}}, {"type": "Feature", "properties": {"norad_id": 41790, "name": "SCATSAT 1", "group": "resource", "lat": -78.62352121559606, "lon": 90.48395226887426, "alt_km": 675.8144287723453, "timestamp": "2025-12-14T09:36:22.691978+00:00", "meta": {"OBJECT_NAME": "SCATSAT 1", "OBJECT_ID": "2016-059H", "EPOCH": "2025-12-13T16:07:08.506272", "MEAN_MOTION": 14.78941778, "ECCENTRICITY": 0.00563057, "INCLINATION": 98.1466, "RA_OF_ASC_NODE": 44.3536, "ARG_OF_PERICENTER": 125.0499, "MEAN_ANOMALY": 235.6012, "EPHEMERIS_TYPE": 0, "CLASSIFICATION_TYPE": "U", "NORAD_CAT_ID": 41790, "ELEMENT_SET_NO": 999, "REV_AT_EPOCH": 7416, "BSTAR": 0.00031870268, "MEAN_MOTION_DOT": 2.358e-05, "MEAN_MOTION_DDOT": 0}, "tle": {"line1": "1 41790U 16059H   25347.67162623  .00002358  00000+0  31870-3 0  9995", "line2": "2 41790  98.1466  44.3536 0056305 125.0499 235.6012 14.78941778 74164"}}, "geometry": {"type": "Point", "coordinates": [90.48395226887426, -78.62352121559606]}}, {"type": "Feature", "properties": {"norad_id": 41875, "name": "GOKTURK 1A", "group": "resource", "lat": -80.86294159909087, "lon": -2.1501959262796793, "alt_km": 692.4064998938611, "timestamp": "2025-12-14T09:36:22.691988+00:00", "meta": {"OBJECT_NAME": "GOKTURK 1A", "OBJECT_ID": "2016-073A", "EPOCH": "2025-12-13T15:58:39.885888", "MEAN_MOTION": 14.62782268, "ECCENTRICITY": 0.0001232, "INCLINATION": 98.1424, "RA_OF_ASC_NODE": 240.0186, "ARG_OF_PERICENTER": 79.7074, "MEAN_ANOMALY": 280.4267, "EPHEMERIS_TYPE": 0, "CLASSIFICATION_TYPE": "U", "NORAD_CAT_ID": 41875, "ELEMENT_SET_NO": 999, "REV_AT_EPOCH": 48170, "BSTAR": 0.00020618222, "MEAN_MOTION_DOT": 1.005e-05, "MEAN_MOTION_DDOT": 0}, "tle": {"line1": "1 41875U 16073A   25347.66573942  .00001005  00000+0  20618-3 0  9990", "line2": "2 41875  98.1424 240.0186 0001232  79.7074 280.4267 14.62782268481703"}}, "geometry": {"type": "Point", "coordinates": [-2.1501959262796793, -80.86294159909087]}}, {"type": "Feature", "properties": {"norad_id": 41877, "name": "RESOURCESAT-2A", "group": "resource", "lat": 67.26080055980844, "lon": 36.6197051928761, "alt_km": 814.1962266061009, "timestamp": "2025-12-14T09:36:22.691998+00:00", "meta": {"OBJECT_NAME": "RESOURCESAT-2A", "OBJECT_ID": "2016-074A", "EPOCH": "2025-12-13T16:23:28.501728", "MEAN_MOTION": 14.21601157, "ECCENTRICITY": 0.00011669, "INCLINATION": 98.7753, "RA_OF_ASC_NODE": 57.5331, "ARG_OF_PERICENTER": 250.1351, "MEAN_ANOMALY": 109.9701, "EPHEMERIS_TYPE": 0, "CLASSIFICATION_TYPE": "U", "NORAD_CAT_ID": 41877, "ELEMENT_SET_NO": 999, "REV_AT_EPOCH": 46794, "BSTAR": 0.00026631553, "MEAN_MOTION_DOT": 5.4e-06, "MEAN_MOTION_DDOT": 0}, "tle": {"line1": "1 41877U 16074A   25347.68296877  .00000540  00000+0  26632-3 0  9999", "line2": "2 41877  98.7753  57.5331 0001166 250.1351 109.9701 14.21601157467948"}}, "geometry": {"type": "Point", "coordinates": [36.6197051928761, 67.26080055980844]}}, {"type": "Feature", "properties": {"norad_id": 41948, "name": "CARTOSAT-2D", "group": "resource", "lat": -60.93953042260538, "lon": 59.471496588417224, "alt_km": 517.7052397795323, "timestamp": "2025-12-14T09:36:22.692008+00:00", "meta": {"OBJECT_NAME": "CARTOSAT-2D", "OBJECT_ID": "2017-008A", "EPOCH": "2025-12-13T16:29:26.221056", "MEAN_MOTION": 15.19280186, "ECCENTRICITY": 0.00046868, "INCLINATION": 97.439, "RA_OF_ASC_NODE": 45.1697, "ARG_OF_PERICENTER": 158.6694, "MEAN_ANOMALY": 201.4737, "EPHEMERIS_TYPE": 0, "CLASSIFICATION_TYPE": "U", "NORAD_CAT_ID": 41948, "ELEMENT_SET_NO": 999, "REV_AT_EPOCH": 48941, "BSTAR": 0.00049899004, "MEAN_MOTION_DOT": 0.00010468, "MEAN_MOTION_DDOT": 0}, "tle": {"line1": "1 41948U 17008A   25347.68710904  .00010468  00000+0  49899-3 0  9998", "line2": "2 41948  97.4390  45.1697 0004686 158.6694 201.4737 15.19280186489416"}}, "geometry": {"type": "Point", "coordinates": [59.471496588417224, -60.93953042260538]}}, {"type": "Feature", "properties": {"norad_id": 42063, "name": "SENTINEL-2B", "group": "resource", "lat": 81.05480663645041, "lon": -45.81196819617431, "alt_km": 780.7236672576082, "timestamp": "2025-12-14T09:36:22.692018+00:00", "meta": {"OBJECT_NAME": "SENTINEL-2B", "OBJECT_ID": "2017-013A", "EPOCH": "2025-12-13T16:23:32.088192", "MEAN_MOTION": 14.30817185, "ECCENTRICITY": 0.00011513, "INCLINATION": 98.5711, "RA_OF_ASC_NODE": 60.1153, "ARG_OF_PERICENTER": 92.9463, "MEAN_ANOMALY": 267.1852, "EPHEMERIS_TYPE": 0, "CLASSIFICATION_TYPE": "U", "NORAD_CAT_ID": 42063, "ELEMENT_SET_NO": 999, "REV_AT_EPOCH": 45811, "BSTAR": 0.0001478502, "MEAN_MOTION_DOT": 3.44e-06, "MEAN_MOTION_DDOT": 0}, "tle": {"line1": "1 42063U 17013A   25347.68301028  .00000344  00000+0  14785-3 0  9994", "line2": "2 42063  98.5711  60.1153 0001151  92.9463 267.1852 14.30817185458113"}}, "geometry": {"type": "Point", "coordinates": [-45.81196819617431, 81.05480663645041]}}, {"type": "Feature", "properties": {"norad_id": 42767, "name": "CARTOSAT-2E", "group": "resource", "lat": -28.513105161524305, "lon": -138.11430073721894, "alt_km": 512.7394215734193, "timestamp": "2025-12-14T09:36:22.692028+00:00", "meta": {"OBJECT_NAME": "CARTOSAT-2E", "OBJECT_ID": "2017-036C", "EPOCH": "2025-12-13T08:58:44.605632", "MEAN_MOTION": 15.19213643, "ECCENTRICITY": 0.00020915, "INCLINATION": 97.4556, "RA_OF_ASC_NODE": 44.9525, "ARG_OF_PERICENTER": 233.8764, "MEAN_ANOMALY": 126.2278, "EPHEMERIS_TYPE": 0, "CLASSIFICATION_TYPE": "U", "NORAD_CAT_ID": 42767, "ELEMENT_SET_NO": 999, "REV_AT_EPOCH": 46993, "BSTAR": 0.00052240021, "MEAN_MOTION_DOT": 0.00010939, "MEAN_MOTION_DDOT": 0}, "tle": {"line1": "1 42767U 17036C   25347.37412738  .00010939  00000+0  52240-3 0  9996", "line2": "2 42767  97.4556  44.9525 0002091 233.8764 126.2278 15.19213643469932"}}, "geometry": {"type": "Point", "coordinates": [-138.11430073721894, -28.513105161524305]}}, {"type": "Feature", "properties": {"norad_id": 42920, "name": "FORMOSAT-5", "group": "resource", "lat": -34.690315504465914, "lon": -123.07413725486023, "alt_km": 726.7798189546957, "timestamp": "2025-12-14T09:36:22.692039+00:00", "meta": {"OBJECT_NAME": "FORMOSAT-5", "OBJECT_ID": "2017-049A", "EPOCH": "2025-12-13T16:04:02.964000", "MEAN_MOTION": 14.51006251, "ECCENTRICITY": 0.00098614, "INCLINATION": 98.2453, "RA_OF_ASC_NODE": 61.9701, "ARG_OF_PERICENTER": 292.3229, "MEAN_ANOMALY": 67.6921, "EPHEMERIS_TYPE": 0, "CLASSIFICATION_TYPE": "U", "NORAD_CAT_ID": 42920, "ELEMENT_SET_NO": 999, "REV_AT_EPOCH": 43977, "BSTAR": 0.0001040867, "MEAN_MOTION_DOT": 3.68e-06, "MEAN_MOTION_DDOT": 0}, "tle": {"line1": "1 42920U 17049A   25347.66947875  .00000368  00000+0  10409-3 0  9994", "line2": "2 42920  98.2453  61.9701 0009861 292.3229  67.6921 14.51006251439773"}}, "geometry": {"type": "Point", "coordinates": [-123.07413725486023, -34.690315504465914]}}]}